ONEWEB-0473             
1 51653U 22012AH  26162.60322291 -.00000662  00000+0 -19342-2 0  9995
2 51653  87.8835  37.3891 0001801  77.9106 282.2223 13.10372751208575
ONEWEB-0474             
1 51654U 22012AJ  26162.59492226 -.00000550  00000+0 -16114-2 0  9990
2 51654  87.8843  37.3742 0001680  72.4028 287.7283 13.10370699208562
ONEWEB-0475             
1 51655U 22012AK  26162.60306886  .00000041  00000+0  71542-4 0  9990
2 51655  87.9135   6.9837 0001663  66.6504 293.4803 13.17648192212953
ONEWEB-0490             
1 54113U 22138A   26162.14505527 -.00000003  00000+0 -39574-4 0  9992
2 54113  87.9172 306.1704 0001675  99.0460 261.0862 13.19724186176032
ONEWEB-0492             
1 54114U 22138B   26162.39778688  .00000065  00000+0  13119-3 0  9992
2 54114  87.9164 306.1219 0001740 105.4265 254.7060 13.19726080176071
ONEWEB-0495             
1 54115U 22138C   26162.37566433  .00000007  00000+0 -14052-4 0  9999
2 54115  87.9166 306.1289 0001175 100.0821 260.0445 13.19724301176051
ONEWEB-0497             
1 54116U 22138D   26162.38830007  .00000062  00000+0  12293-3 0  9996
2 54116  87.9168 306.1180 0001762  99.0912 261.0420 13.19724738176041
ONEWEB-0499             
1 54117U 22138E   26162.44753926  .00000079  00000+0  16607-3 0  9999
2 54117  87.9164 306.1158 0001611  94.1762 265.9555 13.19726668176063
ONEWEB-0500             
1 54118U 22138F   26162.44989739  .00000057  00000+0  11112-3 0  9995
2 54118  87.9173 306.1089 0001895 100.1787 259.9559 13.19723914176075
ONEWEB-0501             
1 54119U 22138G   26162.63153711  .00000056  00000+0  10834-3 0  9999
2 54119  87.9171 306.0725 0001391  97.7244 262.4047 13.19723672176072
ONEWEB-0502             
1 54120U 22138H   26162.38986950  .00000008  00000+0 -11631-4 0  9997
2 54120  87.9173 306.1095 0001616  92.4714 267.6603 13.19724001176062
ONEWEB-0503             
1 54121U 22138J   26162.37882248  .00000069  00000+0  14004-3 0  9994
2 54121  87.9175 306.1174 0001957  90.3883 269.7474 13.19724682176058
ONEWEB-0504             
1 54122U 22138K   26162.44200857  .00000029  00000+0  39350-4 0  9991
2 54122  87.9172 306.1100 0001647  92.5438 267.5883 13.19724965176077
ONEWEB-0505             
1 54123U 22138L   26162.13558823  .00000007  00000+0 -15958-4 0  9992
2 54123  87.9170 306.1722 0001396  92.6725 267.4568 13.19725622176011
ONEWEB-0506             
1 54124U 22138M   26162.64101161  .00000087  00000+0  18531-3 0  9994
2 54124  87.9172 306.0681 0001515  96.9991 263.1314 13.19723759176079
ONEWEB-0507             
1 54125U 22138N   26162.35829436  .00000105  00000+0  22953-3 0  9999
2 54125  87.9164 306.1373 0001626  99.1068 261.0249 13.19724975176089
ONEWEB-0508             
1 54126U 22138P   26162.43094062  .00000144  00000+0  32812-3 0  9996
2 54126  87.9164 306.1224 0001426 104.2292 255.9000 13.19723994176076
ONEWEB-0509             
1 54127U 22138Q   26162.63310507  .00000034  00000+0  52146-4 0  9995
2 54127  87.9175 306.0709 0001670  98.3114 261.8208 13.19719529176078
ONEWEB-0510             
1 54128U 22138R   26162.60177734  .00000029  00000+0  38238-4 0  9996
2 54128  87.9192 275.5488 0002411  97.9967 262.1440 13.20772488178548
ONEWEB-0511             
1 54129U 22138S   26162.62997360  .00000061  00000+0  11987-3 0  9991
2 54129  87.9171 306.0745 0001797  88.4519 271.6820 13.19726295176106
ONEWEB-0512             
1 54130U 22138T   26162.62206513  .00000034  00000+0  53150-4 0  9995
2 54130  87.9164 306.0815 0001540  91.0159 269.1150 13.19724948176071
ONEWEB-0513             
1 54131U 22138U   26162.62997171  .00000043  00000+0  74129-4 0  9992
2 54131  87.9172 306.0246 0001330  67.7540 292.3734 13.20268963175987
ONEWEB-0514             
1 54132U 22138V   26162.63786136  .00000076  00000+0  15804-3 0  9991
2 54132  87.9175 306.0715 0001974  96.8840 263.2518 13.19724809176096
ONEWEB-0515             
1 54133U 22138W   26162.58829643  .00000073  00000+0  14790-3 0  9997
2 54133  87.9197 275.5458 0002614 114.7630 245.3775 13.20770248178564
ONEWEB-0516             
1 54134U 22138X   26162.38513368  .00000062  00000+0  12184-3 0  9993
2 54134  87.9164 306.1288 0001750 101.5520 258.5810 13.19725354176068
ONEWEB-0517             
1 54135U 22138Y   26162.13715260  .00000051  00000+0  94299-4 0  9998
2 54135  87.9170 306.1701 0001988  89.4814 270.6546 13.19724255176036
ONEWEB-0518             
1 54136U 22138Z   26162.38358407 -.00000003  00000+0 -38750-4 0  9991
2 54136  87.9164 306.1310 0001766 103.7129 256.4201 13.19727257176067
ONEWEB-0519             
1 54137U 22138AA  26162.63629541  .00000059  00000+0  11590-3 0  9991
2 54137  87.9177 306.0713 0001943  91.9953 268.1402 13.19726812176102
ONEWEB-0520             
1 54138U 22138AB  26162.44358691 -.00000001  00000+0 -33833-4 0  9990
2 54138  87.9172 306.1100 0001559  98.3721 261.7588 13.19724674176069
ONEWEB-0521             
1 54139U 22138AC  26162.62838533  .00000051  00000+0  94866-4 0  9995
2 54139  87.9174 306.0617 0001989  92.3460 267.7901 13.19725225176030
