OBJECT_NAME,OBJECT_ID,EPOCH,MEAN_MOTION,ECCENTRICITY,INCLINATION,RA_OF_ASC_NODE,ARG_OF_PERICENTER,MEAN_ANOMALY,EPHEMERIS_TYPE,CLASSIFICATION_TYPE,NORAD_CAT_ID,ELEMENT_SET_NO,REV_AT_EPOCH,BSTAR,MEAN_MOTION_DOT,MEAN_MOTION_DDOT
ONEWEB-0473,2022-012AH,2026-06-11T14:28:38.459424,13.10372751,.00018019,87.8835,37.3891,77.9106,282.2223,0,U,51653,999,20857,-.19342115E-2,-.662E-5,0
ONEWEB-0474,2022-012AJ,2026-06-11T14:16:41.283264,13.10370699,.000168,87.8843,37.3742,72.4028,287.7283,0,U,51654,999,20856,-.16114188E-2,-.55E-5,0
ONEWEB-0475,2022-012AK,2026-06-11T14:28:25.149504,13.17648192,.00016639,87.9135,6.9837,66.6504,293.4803,0,U,51655,999,21295,.71541725E-4,.41E-6,0
ONEWEB-0490,2022-138A,2026-06-11T03:28:52.775328,13.19724186,.00016753,87.9172,306.1704,99.0460,261.0862,0,U,54113,999,17603,-.39573776E-4,-.3E-7,0
ONEWEB-0492,2022-138B,2026-06-11T09:32:48.786432,13.19726080,.00017403,87.9164,306.1219,105.4265,254.7060,0,U,54114,999,17607,.1311902E-3,.65E-6,0
ONEWEB-0495,2022-138C,2026-06-11T09:00:57.398112,13.19724301,.00011755,87.9166,306.1289,100.0821,260.0445,0,U,54115,999,17605,-.14052421E-4,.7E-7,0
ONEWEB-0497,2022-138D,2026-06-11T09:19:09.126048,13.19724738,.00017623,87.9168,306.1180,99.0912,261.0420,0,U,54116,999,17604,.12293315E-3,.62E-6,0
ONEWEB-0499,2022-138E,2026-06-11T10:44:27.392064,13.19726668,.00016118,87.9164,306.1158,94.1762,265.9555,0,U,54117,999,17606,.16607172E-3,.79E-6,0
ONEWEB-0500,2022-138F,2026-06-11T10:47:51.134496,13.19723914,.00018958,87.9173,306.1089,100.1787,259.9559,0,U,54118,999,17607,.1111163E-3,.57E-6,0
ONEWEB-0501,2022-138G,2026-06-11T15:09:24.806304,13.19723672,.00013912,87.9171,306.0725,97.7244,262.4047,0,U,54119,999,17607,.10833992E-3,.56E-6,0
ONEWEB-0502,2022-138H,2026-06-11T09:21:24.724800,13.19724001,.00016168,87.9173,306.1095,92.4714,267.6603,0,U,54120,999,17606,-.11630597E-4,.8E-7,0
ONEWEB-0503,2022-138J,2026-06-11T09:05:30.262272,13.19724682,.00019577,87.9175,306.1174,90.3883,269.7474,0,U,54121,999,17605,.1400432E-3,.69E-6,0
ONEWEB-0504,2022-138K,2026-06-11T10:36:29.540448,13.19724965,.00016473,87.9172,306.1100,92.5438,267.5883,0,U,54122,999,17607,.39350333E-4,.29E-6,0
ONEWEB-0505,2022-138L,2026-06-11T03:15:14.823072,13.19725622,.00013962,87.9170,306.1722,92.6725,267.4568,0,U,54123,999,17601,-.15958091E-4,.7E-7,0
ONEWEB-0506,2022-138M,2026-06-11T15:23:03.403104,13.19723759,.00015154,87.9172,306.0681,96.9991,263.1314,0,U,54124,999,17607,.18530876E-3,.87E-6,0
ONEWEB-0507,2022-138N,2026-06-11T08:35:56.632704,13.19724975,.00016261,87.9164,306.1373,99.1068,261.0249,0,U,54125,999,17608,.22952782E-3,.105E-5,0
ONEWEB-0508,2022-138P,2026-06-11T10:20:33.269568,13.19723994,.00014266,87.9164,306.1224,104.2292,255.9000,0,U,54126,999,17607,.32811869E-3,.144E-5,0
ONEWEB-0509,2022-138Q,2026-06-11T15:11:40.278048,13.19719529,.00016705,87.9175,306.0709,98.3114,261.8208,0,U,54127,999,17607,.52145696E-4,.34E-6,0
ONEWEB-0510,2022-138R,2026-06-11T14:26:33.562176,13.20772488,.00024118,87.9192,275.5488,97.9967,262.1440,0,U,54128,999,17854,.38238457E-4,.29E-6,0
ONEWEB-0511,2022-138S,2026-06-11T15:07:09.719040,13.19726295,.00017977,87.9171,306.0745,88.4519,271.6820,0,U,54129,999,17610,.11986516E-3,.61E-6,0
ONEWEB-0512,2022-138T,2026-06-11T14:55:46.427232,13.19724948,.00015407,87.9164,306.0815,91.0159,269.1150,0,U,54130,999,17607,.53149753E-4,.34E-6,0
ONEWEB-0513,2022-138U,2026-06-11T15:07:09.555744,13.20268963,.00013309,87.9172,306.0246,67.7540,292.3734,0,U,54131,999,17598,.74128793E-4,.43E-6,0
ONEWEB-0514,2022-138V,2026-06-11T15:18:31.221504,13.19724809,.00019748,87.9175,306.0715,96.8840,263.2518,0,U,54132,999,17609,.1580401E-3,.76E-6,0
ONEWEB-0515,2022-138W,2026-06-11T14:07:08.811552,13.20770248,.00026149,87.9197,275.5458,114.7630,245.3775,0,U,54133,999,17856,.14789947E-3,.73E-6,0
ONEWEB-0516,2022-138X,2026-06-11T09:14:35.549952,13.19725354,.00017508,87.9164,306.1288,101.5520,258.5810,0,U,54134,999,17606,.12183577E-3,.62E-6,0
ONEWEB-0517,2022-138Y,2026-06-11T03:17:29.984640,13.19724255,.00019881,87.9170,306.1701,89.4814,270.6546,0,U,54135,999,17603,.94299059E-4,.51E-6,0
ONEWEB-0518,2022-138Z,2026-06-11T09:12:21.663648,13.19727257,.00017662,87.9164,306.1310,103.7129,256.4201,0,U,54136,999,17606,-.38750037E-4,-.3E-7,0
ONEWEB-0519,2022-138AA,2026-06-11T15:16:15.923424,13.19726812,.00019435,87.9177,306.0713,91.9953,268.1402,0,U,54137,999,17610,.11589563E-3,.59E-6,0
ONEWEB-0520,2022-138AB,2026-06-11T10:38:45.909024,13.19724674,.00015595,87.9172,306.1100,98.3721,261.7588,0,U,54138,999,17606,-.33832839E-4,-.1E-7,0
ONEWEB-0521,2022-138AC,2026-06-11T15:04:52.492512,13.19725225,.00019896,87.9174,306.0617,92.3460,267.7901,0,U,54139,999,17603,.94865991E-4,.51E-6,0
